IRIDIUM 166             
1 43570U 18061B   23257.88414881  .00000114  00000+0  33766-4 0  9990
2 43570  86.3943 117.3371 0002041  78.9572 281.1853 14.34217576269164
IRIDIUM 158             
1 43571U 18061C   23257.85243938  .00000366  00000+0  12371-3 0  9998
2 43571  86.3942 117.3594 0001699  82.8989 277.2400 14.34218983269128
IRIDIUM 165             
1 43572U 18061D   23257.73827812  .00000411  00000+0  13956-3 0  9996
2 43572  86.3944 117.4345 0001651  83.3451 276.7933 14.34218163269130
IRIDIUM 155             
1 43573U 18061E   23257.90952434  .00000366  00000+0  12356-3 0  9997
2 43573  86.3941 117.2813 0002308  82.6549 277.4909 14.34220406269129
IRIDIUM 154             
1 43574U 18061F   23257.89049095 -.00000110  00000+0 -46190-4 0  9999
2 43574  86.3945 117.3733 0001920  92.1551 267.9865 14.34217225269179
IRIDIUM 163             
1 43575U 18061G   23258.15053983  .00000190  00000+0  60923-4 0  9997
2 43575  86.3942 117.2115 0002030  88.0937 272.0491 14.34217853269185
IRIDIUM 156             
1 43576U 18061H   23257.56701862  .00000405  00000+0  13753-3 0  9995
2 43576  86.3940 117.4616 0002042  78.4387 281.7038 14.34220661269092
IRIDIUM 164             
1 43577U 18061J   23258.03636996  .00000054  00000+0  12112-4 0  9993
2 43577  86.3942 117.2900 0001859  83.6162 276.5246 14.34215778269202
